{"fetched_at":"2026-03-30T06:02:59Z","count":15439,"tles":[{"name":"STARLINK-11329 [DTC]","line1":"1 61881U 24204H   26087.84797081  .00000741  00000+0  10965-4 0  9999","line2":"2 61881  53.1584 261.8178 0000563  63.3526 296.7550 15.69711898 79920","category":"Starlink"}]}